[{"OBJECT_NAME":"ONEWEB-0514","OBJECT_ID":"2022-138V","EPOCH":"2026-03-07T02:57:13.855392","MEAN_MOTION":13.19727087,"ECCENTRICITY":0.0001659,"INCLINATION":87.9236,"RA_OF_ASC_NODE":325.2982,"ARG_OF_PERICENTER":75.7109,"MEAN_ANOMALY":284.4208,"EPHEMERIS_TYPE":0,"CLASSIFICATION_TYPE":"U","NORAD_CAT_ID":54132,"ELEMENT_SET_NO":999,"REV_AT_EPOCH":16336,"BSTAR":0.00024183,"MEAN_MOTION_DOT":1.1e-6,"MEAN_MOTION_DDOT":0},{"OBJECT_NAME":"ONEWEB-0515","OBJECT_ID":"2022-138W","EPOCH":"2026-03-07T03:36:18.322848","MEAN_MOTION":13.20773083,"ECCENTRICITY":0.000236,"INCLINATION":87.9177,"RA_OF_ASC_NODE":294.7976,"ARG_OF_PERICENTER":74.4923,"MEAN_ANOMALY":285.647,"EPHEMERIS_TYPE":0,"CLASSIFICATION_TYPE":"U","NORAD_CAT_ID":54133,"ELEMENT_SET_NO":999,"REV_AT_EPOCH":16583,"BSTAR":5.5652e-5,"MEAN_MOTION_DOT":3.6e-7,"MEAN_MOTION_DDOT":0},{"OBJECT_NAME":"ONEWEB-0516","OBJECT_ID":"2022-138X","EPOCH":"2026-03-07T04:10:01.506720","MEAN_MOTION":13.197261,"ECCENTRICITY":0.0001746,"INCLINATION":87.9229,"RA_OF_ASC_NODE":325.3005,"ARG_OF_PERICENTER":86.0887,"MEAN_ANOMALY":274.0446,"EPHEMERIS_TYPE":0,"CLASSIFICATION_TYPE":"U","NORAD_CAT_ID":54134,"ELEMENT_SET_NO":999,"REV_AT_EPOCH":16337,"BSTAR":0.00011325,"MEAN_MOTION_DOT":5.8e-7,"MEAN_MOTION_DDOT":0},{"OBJECT_NAME":"ONEWEB-0517","OBJECT_ID":"2022-138Y","EPOCH":"2026-03-07T03:40:26.980320","MEAN_MOTION":13.19726712,"ECCENTRICITY":0.00014,"INCLINATION":87.9236,"RA_OF_ASC_NODE":325.2926,"ARG_OF_PERICENTER":75.5011,"MEAN_ANOMALY":284.6277,"EPHEMERIS_TYPE":0,"CLASSIFICATION_TYPE":"U","NORAD_CAT_ID":54135,"ELEMENT_SET_NO":999,"REV_AT_EPOCH":16337,"BSTAR":-1.7526e-5,"MEAN_MOTION_DOT":6.0e-8,"MEAN_MOTION_DDOT":0},{"OBJECT_NAME":"ONEWEB-0518","OBJECT_ID":"2022-138Z","EPOCH":"2026-03-07T04:07:44.262912","MEAN_MOTION":13.1972417,"ECCENTRICITY":0.0001659,"INCLINATION":87.923,"RA_OF_ASC_NODE":325.3015,"ARG_OF_PERICENTER":84.7292,"MEAN_ANOMALY":275.403,"EPHEMERIS_TYPE":0,"CLASSIFICATION_TYPE":"U","NORAD_CAT_ID":54136,"ELEMENT_SET_NO":999,"REV_AT_EPOCH":16337,"BSTAR":8.8518e-6,"MEAN_MOTION_DOT":1.6e-7,"MEAN_MOTION_DDOT":0},{"OBJECT_NAME":"ONEWEB-0519","OBJECT_ID":"2022-138AA","EPOCH":"2026-03-07T02:54:58.178880","MEAN_MOTION":13.19726692,"ECCENTRICITY":0.0001488,"INCLINATION":87.9242,"RA_OF_ASC_NODE":325.2913,"ARG_OF_PERICENTER":76.9037,"MEAN_ANOMALY":283.2262,"EPHEMERIS_TYPE":0,"CLASSIFICATION_TYPE":"U","NORAD_CAT_ID":54137,"ELEMENT_SET_NO":999,"REV_AT_EPOCH":16337,"BSTAR":0.00018211,"MEAN_MOTION_DOT":8.6e-7,"MEAN_MOTION_DDOT":0},{"OBJECT_NAME":"ONEWEB-0520","OBJECT_ID":"2022-138AB","EPOCH":"2026-03-07T03:45:00.409536","MEAN_MOTION":13.19726124,"ECCENTRICITY":0.0001632,"INCLINATION":87.9241,"RA_OF_ASC_NODE":325.2904,"ARG_OF_PERICENTER":90.7578,"MEAN_ANOMALY":269.3741,"EPHEMERIS_TYPE":0,"CLASSIFICATION_TYPE":"U","NORAD_CAT_ID":54138,"ELEMENT_SET_NO":999,"REV_AT_EPOCH":16336,"BSTAR":2.9128e-5,"MEAN_MOTION_DOT":2.5e-7,"MEAN_MOTION_DDOT":0},{"OBJECT_NAME":"ONEWEB-0521","OBJECT_ID":"2022-138AC","EPOCH":"2026-03-07T02:43:35.283648","MEAN_MOTION":13.19726853,"ECCENTRICITY":0.0001543,"INCLINATION":87.9243,"RA_OF_ASC_NODE":325.2834,"ARG_OF_PERICENTER":73.2219,"MEAN_ANOMALY":286.9083,"EPHEMERIS_TYPE":0,"CLASSIFICATION_TYPE":"U","NORAD_CAT_ID":54139,"ELEMENT_SET_NO":999,"REV_AT_EPOCH":16330,"BSTAR":0.00010763,"MEAN_MOTION_DOT":5.6e-7,"MEAN_MOTION_DDOT":0},{"OBJECT_NAME":"ONEWEB-0522","OBJECT_ID":"2022-138AD","EPOCH":"2026-03-07T04:03:11.418624","MEAN_MOTION":13.19727102,"ECCENTRICITY":0.0001611,"INCLINATION":87.924,"RA_OF_ASC_NODE":325.2735,"ARG_OF_PERICENTER":84.5087,"MEAN_ANOMALY":275.6229,"EPHEMERIS_TYPE":0,"CLASSIFICATION_TYPE":"U","NORAD_CAT_ID":54140,"ELEMENT_SET_NO":999,"REV_AT_EPOCH":16335,"BSTAR":0.0001175,"MEAN_MOTION_DOT":6.0e-7,"MEAN_MOTION_DDOT":0},{"OBJECT_NAME":"ONEWEB-0523","OBJECT_ID":"2022-138AE","EPOCH":"2026-03-07T01:29:02.182848","MEAN_MOTION":13.20773418,"ECCENTRICITY":0.0001961,"INCLINATION":87.9176,"RA_OF_ASC_NODE":294.8301,"ARG_OF_PERICENTER":61.1334,"MEAN_ANOMALY":298.9996,"EPHEMERIS_TYPE":0,"CLASSIFICATION_TYPE":"U","NORAD_CAT_ID":54141,"ELEMENT_SET_NO":999,"REV_AT_EPOCH":16582,"BSTAR":0.00026897,"MEAN_MOTION_DOT":1.22e-6,"MEAN_MOTION_DDOT":0},{"OBJECT_NAME":"ONEWEB-0524","OBJECT_ID":"2022-138AF","EPOCH":"2026-03-07T03:02:12.985152","MEAN_MOTION":13.20770176,"ECCENTRICITY":0.0002484,"INCLINATION":87.9168,"RA_OF_ASC_NODE":294.8169,"ARG_OF_PERICENTER":78.9298,"MEAN_ANOMALY":281.2114,"EPHEMERIS_TYPE":0,"CLASSIFICATION_TYPE":"U","NORAD_CAT_ID":54142,"ELEMENT_SET_NO":999,"REV_AT_EPOCH":16583,"BSTAR":0.00026932,"MEAN_MOTION_DOT":1.22e-6,"MEAN_MOTION_DDOT":0},{"OBJECT_NAME":"ONEWEB-0525","OBJECT_ID":"2022-138AG","EPOCH":"2026-03-07T04:30:29.484000","MEAN_MOTION":13.19726824,"ECCENTRICITY":0.0001667,"INCLINATION":87.9234,"RA_OF_ASC_NODE":325.2847,"ARG_OF_PERICENTER":88.9381,"MEAN_ANOMALY":271.1942,"EPHEMERIS_TYPE":0,"CLASSIFICATION_TYPE":"U","NORAD_CAT_ID":54143,"ELEMENT_SET_NO":999,"REV_AT_EPOCH":16337,"BSTAR":0.00019087,"MEAN_MOTION_DOT":8.9e-7,"MEAN_MOTION_DDOT":0},{"OBJECT_NAME":"ONEWEB-0526","OBJECT_ID":"2022-138AH","EPOCH":"2026-03-07T03:29:04.565472","MEAN_MOTION":13.19724088,"ECCENTRICITY":0.0001716,"INCLINATION":87.9245,"RA_OF_ASC_NODE":325.2875,"ARG_OF_PERICENTER":82.4015,"MEAN_ANOMALY":277.7312,"EPHEMERIS_TYPE":0,"CLASSIFICATION_TYPE":"U","NORAD_CAT_ID":54144,"ELEMENT_SET_NO":999,"REV_AT_EPOCH":16334,"BSTAR":0.0001489,"MEAN_MOTION_DOT":7.3e-7,"MEAN_MOTION_DDOT":0},{"OBJECT_NAME":"ONEWEB-0529","OBJECT_ID":"2022-138AJ","EPOCH":"2026-03-07T03:33:37.921248","MEAN_MOTION":13.19726531,"ECCENTRICITY":0.0001696,"INCLINATION":87.9236,"RA_OF_ASC_NODE":325.3047,"ARG_OF_PERICENTER":89.0871,"MEAN_ANOMALY":271.0456,"EPHEMERIS_TYPE":0,"CLASSIFICATION_TYPE":"U","NORAD_CAT_ID":54145,"ELEMENT_SET_NO":999,"REV_AT_EPOCH":16336,"BSTAR":5.4027e-5,"MEAN_MOTION_DOT":3.5e-7,"MEAN_MOTION_DDOT":0},{"OBJECT_NAME":"ONEWEB-0531","OBJECT_ID":"2022-138AK","EPOCH":"2026-03-07T04:30:51.058944","MEAN_MOTION":13.20773221,"ECCENTRICITY":0.0002293,"INCLINATION":87.9177,"RA_OF_ASC_NODE":294.8016,"ARG_OF_PERICENTER":64.9502,"MEAN_ANOMALY":295.1869,"EPHEMERIS_TYPE":0,"CLASSIFICATION_TYPE":"U","NORAD_CAT_ID":54146,"ELEMENT_SET_NO":999,"REV_AT_EPOCH":16584,"BSTAR":9.6266e-5,"MEAN_MOTION_DOT":5.2e-7,"MEAN_MOTION_DDOT":0},{"OBJECT_NAME":"ONEWEB-0535","OBJECT_ID":"2022-138AL","EPOCH":"2026-03-07T04:21:23.646816","MEAN_MOTION":13.19726858,"ECCENTRICITY":0.0001678,"INCLINATION":87.924,"RA_OF_ASC_NODE":325.2748,"ARG_OF_PERICENTER":68.2027,"MEAN_ANOMALY":291.9284,"EPHEMERIS_TYPE":0,"CLASSIFICATION_TYPE":"U","NORAD_CAT_ID":54147,"ELEMENT_SET_NO":999,"REV_AT_EPOCH":16338,"BSTAR":1.7175e-5,"MEAN_MOTION_DOT":2.0e-7,"MEAN_MOTION_DDOT":0},{"OBJECT_NAME":"ONEWEB-0536","OBJECT_ID":"2022-138AM","EPOCH":"2026-03-07T04:12:40.211424","MEAN_MOTION":13.20773242,"ECCENTRICITY":0.0002408,"INCLINATION":87.9164,"RA_OF_ASC_NODE":294.8393,"ARG_OF_PERICENTER":66.2073,"MEAN_ANOMALY":293.9312,"EPHEMERIS_TYPE":0,"CLASSIFICATION_TYPE":"U","NORAD_CAT_ID":54148,"ELEMENT_SET_NO":999,"REV_AT_EPOCH":16583,"BSTAR":7.3475e-6,"MEAN_MOTION_DOT":1.6e-7,"MEAN_MOTION_DDOT":0}]
