ONEWEB-0514             
1 54132U 22138V   26066.12307703  .00000110  00000+0  24183-3 0  9996
2 54132  87.9236 325.2982 0001659  75.7109 284.4208 13.19727087163365
ONEWEB-0515             
1 54133U 22138W   26066.15021207  .00000036  00000+0  55652-4 0  9995
2 54133  87.9177 294.7976 0002360  74.4923 285.6470 13.20773083165830
ONEWEB-0516             
1 54134U 22138X   26066.17362855  .00000058  00000+0  11325-3 0  9997
2 54134  87.9229 325.3005 0001746  86.0887 274.0446 13.19726100163376
ONEWEB-0517             
1 54135U 22138Y   26066.15309005  .00000006  00000+0 -17526-4 0  9998
2 54135  87.9236 325.2926 0001400  75.5011 284.6277 13.19726712163373
ONEWEB-0518             
1 54136U 22138Z   26066.17204008  .00000016  00000+0  88518-5 0  9998
2 54136  87.9230 325.3015 0001659  84.7292 275.4030 13.19724170163378
ONEWEB-0519             
1 54137U 22138AA  26066.12150670  .00000086  00000+0  18211-3 0  9997
2 54137  87.9242 325.2913 0001488  76.9037 283.2262 13.19726692163373
ONEWEB-0520             
1 54138U 22138AB  26066.15625474  .00000025  00000+0  29128-4 0  9993
2 54138  87.9241 325.2904 0001632  90.7578 269.3741 13.19726124163364
ONEWEB-0521             
1 54139U 22138AC  26066.11360282  .00000056  00000+0  10763-3 0  9991
2 54139  87.9243 325.2834 0001543  73.2219 286.9083 13.19726853163305
ONEWEB-0522             
1 54140U 22138AD  26066.16888216  .00000060  00000+0  11750-3 0  9992
2 54140  87.9240 325.2735 0001611  84.5087 275.6229 13.19727102163358
ONEWEB-0523             
1 54141U 22138AE  26066.06183082  .00000122  00000+0  26897-3 0  9998
2 54141  87.9176 294.8301 0001961  61.1334 298.9996 13.20773418165827
ONEWEB-0524             
1 54142U 22138AF  26066.12653918  .00000122  00000+0  26932-3 0  9996
2 54142  87.9168 294.8169 0002484  78.9298 281.2114 13.20770176165833
ONEWEB-0525             
1 54143U 22138AG  26066.18784125  .00000089  00000+0  19087-3 0  9993
2 54143  87.9234 325.2847 0001667  88.9381 271.1942 13.19726824163379
ONEWEB-0526             
1 54144U 22138AH  26066.14519173  .00000073  00000+0  14890-3 0  9999
2 54144  87.9245 325.2875 0001716  82.4015 277.7312 13.19724088163341
ONEWEB-0529             
1 54145U 22138AJ  26066.14835557  .00000035  00000+0  54027-4 0  9992
2 54145  87.9236 325.3047 0001696  89.0871 271.0456 13.19726531163367
ONEWEB-0531             
1 54146U 22138AK  26066.18809096  .00000052  00000+0  96266-4 0  9996
2 54146  87.9177 294.8016 0002293  64.9502 295.1869 13.20773221165845
ONEWEB-0535             
1 54147U 22138AL  26066.18152369  .00000020  00000+0  17175-4 0  9998
2 54147  87.9240 325.2748 0001678  68.2027 291.9284 13.19726858163387
ONEWEB-0536             
1 54148U 22138AM  26066.17546541  .00000016  00000+0  73475-5 0  9998
2 54148  87.9164 294.8393 0002408  66.2073 293.9312 13.20773242165838
